[{"id":"22490","name":"SCD 1","tle1":"1 22490U 93009B   26176.23155106  .00000376  00000+0  51700-4 0  9995","tle2":"2 22490  24.9679 157.9050 0041736 222.8635 160.0190 14.46121376762289"},{"id":"25397","name":"TECHSAT 1B (GO-32)","tle1":"1 25397U 98043D   26175.72087360  .00000044  00000+0  39041-4 0  9992","tle2":"2 25397  99.0070 168.6697 0001426 148.6020 211.5244 14.24429629452407"},{"id":"25504","name":"SCD 2","tle1":"1 25504U 98060A   26176.26241737  .00000369  00000+0  52161-4 0  9999","tle2":"2 25504  24.9966  22.3587 0016646 207.9194 313.6298 14.45528618461496"},{"id":"25757","name":"DLR-TUBSAT","tle1":"1 25757U 99029B   26176.21580330  .00000088  00000+0  33581-4 0  9998","tle2":"2 25757  98.6696 171.9841 0013575 330.1274  29.9145 14.52428603434415"},{"id":"25994","name":"TERRA","tle1":"1 25994U 99068A   26176.23172887  .00000366  00000+0  83493-4 0  9996","tle2":"2 25994  97.9452 225.4590 0002218 165.9563 235.9013 14.61108926410783"},{"id":"27004","name":"MAROC-TUBSAT","tle1":"1 27004U 01056D   26176.33783804 -.00000017  00000+0  33420-4 0  9997","tle2":"2 27004  99.8086 353.3510 0020528 121.0425 358.8485 13.70262719227300"},{"id":"27424","name":"AQUA","tle1":"1 27424U 02022A   26176.27398957  .00000723  00000+0  15354-3 0  9999","tle2":"2 27424  98.4280 145.7185 0000820  62.5296  40.4773 14.62169245284451"},{"id":"28220","name":"SHIYAN-1 (SY-1)","tle1":"1 28220U 04012A   26176.20778873  .00016076  00000+0  49153-3 0  9999","tle2":"2 28220  97.8693 254.7979 0004874   4.9668 355.1621 15.33946068212325"},{"id":"28376","name":"AURA","tle1":"1 28376U 04026A   26176.20263839  .00000717  00000+0  15488-3 0  9996","tle2":"2 28376  98.3420 132.7224 0001167  80.9077 279.2255 14.61340065167388"},{"id":"28649","name":"IRS-P5 (CARTOSAT-1)","tle1":"1 28649U 05017A   26176.06416674  .00001286  00000+0  13516-3 0  9993","tle2":"2 28649  97.5306 198.7713 0002413  70.3208 289.8271 14.91067615144991"},{"id":"28893","name":"SINAH 1","tle1":"1 28893U 05043D   26176.32319816  .00000303  00000+0  66933-4 0  9993","tle2":"2 28893  98.2869 310.6933 0013233 248.8196 111.1592 14.64162584101710"},{"id":"29228","name":"RESURS-DK 1","tle1":"1 29228U 06021A   26176.09988520  .00001983  00000+0  11734-3 0  9994","tle2":"2 29228  69.9325 319.0704 0006769 287.9882  72.0546 15.13246973103778"},{"id":"29268","name":"ARIRANG-2 (KOMPSAT-2)","tle1":"1 29268U 06031A   26176.30818439  .00000104  00000+0  27992-4 0  9992","tle2":"2 29268  97.8314   0.3619 0015694  51.2822 127.5330 14.64663456 62661"},{"id":"29709","name":"LAPAN-TUBSAT","tle1":"1 29709U 07001A   26176.26756306 -.00000095  00000+0 -43139-5 0  9992","tle2":"2 29709  98.1346 175.6737 0012557 153.4981 206.6878 14.85954670 52358"},{"id":"31113","name":"HAIYANG-1B","tle1":"1 31113U 07010A   26176.18562671  .00000091  00000+0  50305-4 0  9991","tle2":"2 31113  98.3498 157.7208 0013554 172.3213 187.8181 14.31028738  1786"},{"id":"31598","name":"COSMO-SKYMED 1","tle1":"1 31598U 07023A   26176.28904909  .00003265  00000+0  28793-3 0  9998","tle2":"2 31598  97.8861   8.2130 0001834  92.1585 267.9847 14.97141281 31002"},{"id":"31698","name":"TERRASAR-X","tle1":"1 31698U 07026A   26175.56897117  .00001644  00000+0  81449-4 0  9991","tle2":"2 31698  97.4447 183.1695 0001626  88.3572 271.7849 15.19150427 54344"},{"id":"32060","name":"WORLDVIEW-1 (WV-1)","tle1":"1 32060U 07041A   26176.30085515  .00006655  00000+0  27478-3 0  9994","tle2":"2 32060  97.3879 295.9284 0001485 352.0647   8.0566 15.24347990 44119"},{"id":"32289","name":"YAOGAN-3","tle1":"1 32289U 07055A   26176.31595709  .00002520  00000+0  26177-3 0  9996","tle2":"2 32289  97.8158 206.1137 0001957  80.7872 279.3567 14.90811663  7081"},{"id":"32376","name":"COSMO-SKYMED 2","tle1":"1 32376U 07059A   26176.32981194  .00000388  00000+0  55258-4 0  9998","tle2":"2 32376  97.8888 359.8096 0001359  88.2041 271.9328 14.82151356  3216"},{"id":"32382","name":"RADARSAT-2","tle1":"1 32382U 07061A   26176.29437480 -.00000007  00000+0  14118-4 0  9997","tle2":"2 32382  98.5782 183.1111 0001304  84.9147 275.2184 14.29983046967115"},{"id":"32783","name":"CARTOSAT-2A","tle1":"1 32783U 08021A   26176.29902137  .00000736  00000+0  10565-3 0  9994","tle2":"2 32783  97.7633 224.7309 0013334  85.4957 274.7777 14.79249281980004"},{"id":"33320","name":"HUANJING 1A (HJ-1A)","tle1":"1 33320U 08041A   26176.25759510  .00001673  00000+0  20637-3 0  9997","tle2":"2 33320  97.6686 161.7839 0020523 109.9016 250.4413 14.84004289959606"},{"id":"33321","name":"HUANJING 1B (HJ-1B)","tle1":"1 33321U 08041B   26176.23034499  .00000248  00000+0  36251-4 0  9995","tle2":"2 33321  97.6523 164.9051 0036752 154.5961 205.7071 14.83327235959605"},{"id":"33331","name":"GEOEYE 1","tle1":"1 33331U 08042A   26176.28113078  .00000394  00000+0  82956-4 0  9998","tle2":"2 33331  98.1234 250.1098 0005070  49.6428 310.5217 14.64732285951334"},{"id":"33396","name":"THEOS","tle1":"1 33396U 08049A   26176.28264311  .00000065  00000+0  50421-4 0  9990","tle2":"2 33396  98.5570 233.3037 0001179  82.2694 277.8617 14.20134184919117"},{"id":"33412","name":"COSMO-SKYMED 3","tle1":"1 33412U 08054A   26176.24392940  .00002011  00000+0  13852-3 0  9990","tle2":"2 33412  97.8276  34.9486 0014238 236.4503 123.5364 15.06989339958154"},{"id":"33446","name":"YAOGAN-4","tle1":"1 33446U 08061A   26175.38560018  .00000845  00000+0  10985-3 0  9999","tle2":"2 33446  97.9307 108.8427 0015469  51.1813 309.0779 14.83212164946737"},{"id":"33492","name":"GOSAT (IBUKI)","tle1":"1 33492U 09002A   26176.25203289 -.00000082  00000+0 -60154-5 0  9997","tle2":"2 33492  98.0900 287.2323 0001316  83.5570 276.5784 14.67538240932648"},{"id":"35681","name":"DEIMOS-1","tle1":"1 35681U 09041A   26176.25776758  .00000165  00000+0  31498-4 0  9996","tle2":"2 35681  97.7413 333.1359 0002178 121.0533 239.0891 14.75243032908073"}]