OBJECT_NAME,OBJECT_ID,EPOCH,MEAN_MOTION,ECCENTRICITY,INCLINATION,RA_OF_ASC_NODE,ARG_OF_PERICENTER,MEAN_ANOMALY,EPHEMERIS_TYPE,CLASSIFICATION_TYPE,NORAD_CAT_ID,ELEMENT_SET_NO,REV_AT_EPOCH,BSTAR,MEAN_MOTION_DOT,MEAN_MOTION_DDOT
SCD 1,1993-009B,2026-06-25T05:33:26.011584,14.46121376,.00417366,24.9679,157.9050,222.8635,160.0190,0,U,22490,999,76228,.51700159E-4,.376E-5,0
TECHSAT 1B (GO-32),1998-043D,2026-06-24T17:18:03.479040,14.24429629,.00014269,99.0070,168.6697,148.6020,211.5244,0,U,25397,999,45240,.39040757E-4,.44E-6,0
SCD 2,1998-060A,2026-06-25T06:17:52.860768,14.45528618,.00166467,24.9966,22.3587,207.9194,313.6298,0,U,25504,999,46149,.5216123E-4,.369E-5,0
DLR-TUBSAT,1999-029B,2026-06-25T05:10:45.405120,14.52428603,.00135754,98.6696,171.9841,330.1274,29.9145,0,U,25757,999,43441,.33581068E-4,.88E-6,0
TERRA,1999-068A,2026-06-25T05:33:41.374368,14.61108926,.00022189,97.9452,225.4590,165.9563,235.9013,0,U,25994,999,41078,.83493276E-4,.366E-5,0
MAROC-TUBSAT,2001-056D,2026-06-25T08:06:29.206656,13.70262719,.00205282,99.8086,353.3510,121.0425,358.8485,0,U,27004,999,22730,.3341954E-4,-.17E-6,0
AQUA,2002-022A,2026-06-25T06:34:32.698848,14.62169245,.00008205,98.4280,145.7185,62.5296,40.4773,0,U,27424,999,28445,.15354055E-3,.723E-5,0
SHIYAN-1 (SY-1),2004-012A,2026-06-25T04:59:12.946272,15.33946068,.00048747,97.8693,254.7979,4.9668,355.1621,0,U,28220,999,21232,.49152693E-3,.16076E-3,0
AURA,2004-026A,2026-06-25T04:51:47.956896,14.61340065,.00011679,98.3420,132.7224,80.9077,279.2255,0,U,28376,999,16738,.15488132E-3,.717E-5,0
IRS-P5 (CARTOSAT-1),2005-017A,2026-06-25T01:32:24.006336,14.91067615,.00024137,97.5306,198.7713,70.3208,289.8271,0,U,28649,999,14499,.13516422E-3,.1286E-4,0
SINAH 1,2005-043D,2026-06-25T07:45:24.321024,14.64162584,.00132332,98.2869,310.6933,248.8196,111.1592,0,U,28893,999,10171,.6693318E-4,.303E-5,0
RESURS-DK 1,2006-021A,2026-06-25T02:23:50.081280,15.13246973,.00067692,69.9325,319.0704,287.9882,72.0546,0,U,29228,999,10377,.11734078E-3,.1983E-4,0
ARIRANG-2 (KOMPSAT-2),2006-031A,2026-06-25T07:23:47.131296,14.64663456,.00156942,97.8314,0.3619,51.2822,127.5330,0,U,29268,999,6266,.2799231E-4,.104E-5,0
LAPAN-TUBSAT,2007-001A,2026-06-25T06:25:17.448384,14.85954670,.00125575,98.1346,175.6737,153.4981,206.6878,0,U,29709,999,5235,-.4313861E-5,-.95E-6,0
HAIYANG-1B,2007-010A,2026-06-25T04:27:18.147744,14.31028738,.00135543,98.3498,157.7208,172.3213,187.8181,0,U,31113,999,178,.50305003E-4,.91E-6,0
COSMO-SKYMED 1,2007-023A,2026-06-25T06:56:13.841376,14.97141281,.00018346,97.8861,8.2130,92.1585,267.9847,0,U,31598,999,3100,.28793446E-3,.3265E-4,0
TERRASAR-X,2007-026A,2026-06-24T13:39:19.109088,15.19150427,.00016263,97.4447,183.1695,88.3572,271.7849,0,U,31698,999,5434,.81449017E-4,.1644E-4,0
WORLDVIEW-1 (WV-1),2007-041A,2026-06-25T07:13:13.884960,15.24347990,.00014853,97.3879,295.9284,352.0647,8.0566,0,U,32060,999,4411,.27478394E-3,.6655E-4,0
YAOGAN-3,2007-055A,2026-06-25T07:34:58.692576,14.90811663,.00019577,97.8158,206.1137,80.7872,279.3567,0,U,32289,999,708,.26176947E-3,.252E-4,0
COSMO-SKYMED 2,2007-059A,2026-06-25T07:54:55.751616,14.82151356,.00013595,97.8888,359.8096,88.2041,271.9328,0,U,32376,999,321,.55257668E-4,.388E-5,0
RADARSAT-2,2007-061A,2026-06-25T07:03:53.982720,14.29983046,.00013048,98.5782,183.1111,84.9147,275.2184,0,U,32382,999,96711,.14117958E-4,-.7E-7,0
CARTOSAT-2A,2008-021A,2026-06-25T07:10:35.446368,14.79249281,.00133344,97.7633,224.7309,85.4957,274.7777,0,U,32783,999,98000,.10564912E-3,.736E-5,0
HUANJING 1A (HJ-1A),2008-041A,2026-06-25T06:10:56.216640,14.84004289,.00205234,97.6686,161.7839,109.9016,250.4413,0,U,33320,999,95960,.20637216E-3,.1673E-4,0
HUANJING 1B (HJ-1B),2008-041B,2026-06-25T05:31:41.807136,14.83327235,.00367524,97.6523,164.9051,154.5961,205.7071,0,U,33321,999,95960,.3625129E-4,.248E-5,0
GEOEYE 1,2008-042A,2026-06-25T06:44:49.699392,14.64732285,.00050702,98.1234,250.1098,49.6428,310.5217,0,U,33331,999,95133,.8295578E-4,.394E-5,0
THEOS,2008-049A,2026-06-25T06:47:00.364704,14.20134184,.00011793,98.5570,233.3037,82.2694,277.8617,0,U,33396,999,91911,.50420587E-4,.65E-6,0
COSMO-SKYMED 3,2008-054A,2026-06-25T05:51:15.500160,15.06989339,.00142381,97.8276,34.9486,236.4503,123.5364,0,U,33412,999,95815,.13852287E-3,.2011E-4,0
YAOGAN-4,2008-061A,2026-06-24T09:15:15.855552,14.83212164,.00154694,97.9307,108.8427,51.1813,309.0779,0,U,33446,999,94673,.10984512E-3,.845E-5,0
GOSAT (IBUKI),2009-002A,2026-06-25T06:02:55.641696,14.67538240,.0001316,98.0900,287.2323,83.5570,276.5784,0,U,33492,999,93264,-.6015379E-5,-.82E-6,0
DEIMOS-1,2009-041A,2026-06-25T06:11:11.118912,14.75243032,.00021787,97.7413,333.1359,121.0533,239.0891,0,U,35681,999,90807,.31498143E-4,.165E-5,0
